IXPE                    
1 49954U 21121A   24056.58334491  .00004352  00000+0  30260-3 0  9999
2 49954   0.2290 147.7276 0009812  52.3876  64.6637 14.96639104  5898
